{
  "type": "FeatureCollection",
  "features": [
    {
      "type": "Feature",
      "properties": {
        "norad_id": 41877,
        "name": "RESOURCESAT-2A",
        "group": "resource",
        "lat": -77.12770523765829,
        "lon": -171.2475771443891,
        "alt_km": 826.5126244055491,
        "timestamp": "2025-12-07T09:35:09.449516+00:00",
        "meta_object_name": "RESOURCESAT-2A",
        "meta_object_id": "2016-074A",
        "meta_epoch": "2025-12-06T22:13:43.675680",
        "meta_mean_motion": 14.215957,
        "meta_eccentricity": 0.00011222,
        "meta_inclination": 98.7765,
        "meta_ra_of_asc_node": 50.8159,
        "meta_arg_of_pericenter": 282.5754,
        "meta_mean_anomaly": 77.5297,
        "meta_ephemeris_type": 0,
        "meta_classification_type": "U",
        "meta_norad_cat_id": 41877,
        "meta_element_set_no": 999,
        "meta_rev_at_epoch": 46698,
        "meta_bstar": 0.00016976115,
        "meta_mean_motion_dot": 3.28e-06,
        "meta_mean_motion_ddot": 0,
        "tle_line1": "1 41877U 16074A   25340.92619995  .00000328  00000+0  16976-3 0  9993",
        "tle_line2": "2 41877  98.7765  50.8159 0001122 282.5754  77.5297 14.21595700466982"
      },
      "geometry": {
        "type": "Point",
        "coordinates": [
          -171.2475771443891,
          -77.12770523765829
        ]
      }
    },
    {
      "type": "Feature",
      "properties": {
        "norad_id": 41948,
        "name": "CARTOSAT-2D",
        "group": "resource",
        "lat": -13.387401705652902,
        "lon": -142.8038847328544,
        "alt_km": 510.1924745808219,
        "timestamp": "2025-12-07T09:35:09.449531+00:00",
        "meta_object_name": "CARTOSAT-2D",
        "meta_object_id": "2017-008A",
        "meta_epoch": "2025-12-06T21:40:18.069888",
        "meta_mean_motion": 15.19170362,
        "meta_eccentricity": 0.00041488,
        "meta_inclination": 97.4395,
        "meta_ra_of_asc_node": 38.4894,
        "meta_arg_of_pericenter": 181.527,
        "meta_mean_anomaly": 178.5952,
        "meta_ephemeris_type": 0,
        "meta_classification_type": "U",
        "meta_norad_cat_id": 41948,
        "meta_element_set_no": 999,
        "meta_rev_at_epoch": 48838,
        "meta_bstar": 0.00040415455,
        "meta_mean_motion_dot": 8.436e-05,
        "meta_mean_motion_ddot": 0,
        "tle_line1": "1 41948U 17008A   25340.90298692  .00008436  00000+0  40415-3 0  9998",
        "tle_line2": "2 41948  97.4395  38.4894 0004148 181.5270 178.5952 15.19170362488385"
      },
      "geometry": {
        "type": "Point",
        "coordinates": [
          -142.8038847328544,
          -13.387401705652902
        ]
      }
    },
    {
      "type": "Feature",
      "properties": {
        "norad_id": 42063,
        "name": "SENTINEL-2B",
        "group": "resource",
        "lat": 51.35144402197463,
        "lon": 43.0475620685924,
        "alt_km": 783.653276967123,
        "timestamp": "2025-12-07T09:35:09.449541+00:00",
        "meta_object_name": "SENTINEL-2B",
        "meta_object_id": "2017-013A",
        "meta_epoch": "2025-12-06T21:35:40.951392",
        "meta_mean_motion": 14.30812453,
        "meta_eccentricity": 0.00011329,
        "meta_inclination": 98.5725,
        "meta_ra_of_asc_node": 53.4277,
        "meta_arg_of_pericenter": 97.8882,
        "meta_mean_anomaly": 262.2429,
        "meta_ephemeris_type": 0,
        "meta_classification_type": "U",
        "meta_norad_cat_id": 42063,
        "meta_element_set_no": 999,
        "meta_rev_at_epoch": 45714,
        "meta_bstar": 0.00013181744,
        "meta_mean_motion_dot": 3.02e-06,
        "meta_mean_motion_ddot": 0,
        "tle_line1": "1 42063U 17013A   25340.89977953  .00000302  00000+0  13182-3 0  9990",
        "tle_line2": "2 42063  98.5725  53.4277 0001132  97.8882 262.2429 14.30812453457149"
      },
      "geometry": {
        "type": "Point",
        "coordinates": [
          43.0475620685924,
          51.35144402197463
        ]
      }
    },
    {
      "type": "Feature",
      "properties": {
        "norad_id": 42767,
        "name": "CARTOSAT-2E",
        "group": "resource",
        "lat": 74.5451459921918,
        "lon": -112.6700625544543,
        "alt_km": 502.59278662772704,
        "timestamp": "2025-12-07T09:35:09.449552+00:00",
        "meta_object_name": "CARTOSAT-2E",
        "meta_object_id": "2017-036C",
        "meta_epoch": "2025-12-06T22:03:59.171904",
        "meta_mean_motion": 15.19233387,
        "meta_eccentricity": 0.00023701,
        "meta_inclination": 97.4561,
        "meta_ra_of_asc_node": 38.582,
        "meta_arg_of_pericenter": 266.9012,
        "meta_mean_anomaly": 93.1951,
        "meta_ephemeris_type": 0,
        "meta_classification_type": "U",
        "meta_norad_cat_id": 42767,
        "meta_element_set_no": 999,
        "meta_rev_at_epoch": 46895,
        "meta_bstar": 0.00040988817,
        "meta_mean_motion_dot": 8.571e-05,
        "meta_mean_motion_ddot": 0,
        "tle_line1": "1 42767U 17036C   25340.91943486  .00008571  00000+0  40989-3 0  9994",
        "tle_line2": "2 42767  97.4561  38.5820 0002370 266.9012  93.1951 15.19233387468956"
      },
      "geometry": {
        "type": "Point",
        "coordinates": [
          -112.6700625544543,
          74.5451459921918
        ]
      }
    },
    {
      "type": "Feature",
      "properties": {
        "norad_id": 42920,
        "name": "FORMOSAT-5",
        "group": "resource",
        "lat": 26.584667991249653,
        "lon": 51.66270808089154,
        "alt_km": 719.3117985516965,
        "timestamp": "2025-12-07T09:35:09.449563+00:00",
        "meta_object_name": "FORMOSAT-5",
        "meta_object_id": "2017-049A",
        "meta_epoch": "2025-12-06T21:52:39.180576",
        "meta_mean_motion": 14.50999938,
        "meta_eccentricity": 0.00101275,
        "meta_inclination": 98.2458,
        "meta_ra_of_asc_node": 55.3461,
        "meta_arg_of_pericenter": 315.1922,
        "meta_mean_anomaly": 44.8454,
        "meta_ephemeris_type": 0,
        "meta_classification_type": "U",
        "meta_norad_cat_id": 42920,
        "meta_element_set_no": 999,
        "meta_rev_at_epoch": 43879,
        "meta_bstar": 0.00013384104,
        "meta_mean_motion_dot": 4.86e-06,
        "meta_mean_motion_ddot": 0,
        "tle_line1": "1 42920U 17049A   25340.91156459  .00000486  00000+0  13384-3 0  9991",
        "tle_line2": "2 42920  98.2458  55.3461 0010127 315.1922  44.8454 14.50999938438790"
      },
      "geometry": {
        "type": "Point",
        "coordinates": [
          51.66270808089154,
          26.584667991249653
        ]
      }
    },
    {
      "type": "Feature",
      "properties": {
        "norad_id": 42969,
        "name": "SENTINEL-5P",
        "group": "resource",
        "lat": -52.51918012411502,
        "lon": -68.34448196620515,
        "alt_km": 834.4336374152581,
        "timestamp": "2025-12-07T09:35:09.449573+00:00",
        "meta_object_name": "SENTINEL-5P",
        "meta_object_id": "2017-064A",
        "meta_epoch": "2025-12-06T20:18:13.761504",
        "meta_mean_motion": 14.19515207,
        "meta_eccentricity": 9.536e-05,
        "meta_inclination": 98.7776,
        "meta_ra_of_asc_node": 279.4827,
        "meta_arg_of_pericenter": 86.5191,
        "meta_mean_anomaly": 273.6094,
        "meta_ephemeris_type": 0,
        "meta_classification_type": "U",
        "meta_norad_cat_id": 42969,
        "meta_element_set_no": 999,
        "meta_rev_at_epoch": 42227,
        "meta_bstar": 0.00010867854,
        "meta_mean_motion_dot": 1.85e-06,
        "meta_mean_motion_ddot": 0,
        "tle_line1": "1 42969U 17064A   25340.84599261  .00000185  00000+0  10868-3 0  9995",
        "tle_line2": "2 42969  98.7776 279.4827 0000953  86.5191 273.6094 14.19515207422275"
      },
      "geometry": {
        "type": "Point",
        "coordinates": [
          -68.34448196620515,
          -52.51918012411502
        ]
      }
    },
    {
      "type": "Feature",
      "properties": {
        "norad_id": 42987,
        "name": "SKYSAT-C11",
        "group": "resource",
        "lat": 51.12479563939553,
        "lon": -51.94336944215539,
        "alt_km": 419.9016639537049,
        "timestamp": "2025-12-07T09:35:09.449583+00:00",
        "meta_object_name": "SKYSAT-C11",
        "meta_object_id": "2017-068A",
        "meta_epoch": "2025-12-06T22:10:03.568224",
        "meta_mean_motion": 15.47089088,
        "meta_eccentricity": 9.428e-05,
        "meta_inclination": 97.4144,
        "meta_ra_of_asc_node": 118.2735,
        "meta_arg_of_pericenter": 109.5192,
        "meta_mean_anomaly": 250.6159,
        "meta_ephemeris_type": 0,
        "meta_classification_type": "U",
        "meta_norad_cat_id": 42987,
        "meta_element_set_no": 999,
        "meta_rev_at_epoch": 45341,
        "meta_bstar": 0.00061086347,
        "meta_mean_motion_dot": 0.0003092,
        "meta_mean_motion_ddot": 0,
        "tle_line1": "1 42987U 17068A   25340.92365241  .00030920  00000+0  61086-3 0  9995",
        "tle_line2": "2 42987  97.4144 118.2735 0000942 109.5192 250.6159 15.47089088453415"
      },
      "geometry": {
        "type": "Point",
        "coordinates": [
          -51.94336944215539,
          51.12479563939553
        ]
      }
    }
  ]
}